[{"OBJECT_NAME":"FLOCK 4G-2","OBJECT_ID":"2025-009BE","EPOCH":"2026-03-09T15:53:23.273952","MEAN_MOTION":15.2767526,"ECCENTRICITY":0.00031811,"INCLINATION":97.4044,"RA_OF_ASC_NODE":151.2221,"ARG_OF_PERICENTER":329.2677,"MEAN_ANOMALY":30.8376,"EPHEMERIS_TYPE":0,"CLASSIFICATION_TYPE":"U","NORAD_CAT_ID":62661,"ELEMENT_SET_NO":999,"REV_AT_EPOCH":12132,"BSTAR":0.00051068481,"MEAN_MOTION_DOT":0.00013752,"MEAN_MOTION_DDOT":0},{"OBJECT_NAME":"STARLINK-36430","OBJECT_ID":"2026-002X","EPOCH":"2026-03-09T02:25:27.034176","MEAN_MOTION":15.27585781,"ECCENTRICITY":0.00034264,"INCLINATION":43.0007,"RA_OF_ASC_NODE":328.1775,"ARG_OF_PERICENTER":244.167,"MEAN_ANOMALY":115.8829,"EPHEMERIS_TYPE":0,"CLASSIFICATION_TYPE":"U","NORAD_CAT_ID":67326,"ELEMENT_SET_NO":999,"REV_AT_EPOCH":1115,"BSTAR":0.0010713694,"MEAN_MOTION_DOT":0.00029345,"MEAN_MOTION_DDOT":0}]
